[{"OBJECT_NAME":"ION SCV-011","OBJECT_ID":"2023-084AB","EPOCH":"2026-03-09T22:35:16.566144","MEAN_MOTION":15.27752464,"ECCENTRICITY":0.00079323,"INCLINATION":98.1356,"RA_OF_ASC_NODE":247.1056,"ARG_OF_PERICENTER":30.3898,"MEAN_ANOMALY":329.7798,"EPHEMERIS_TYPE":0,"CLASSIFICATION_TYPE":"U","NORAD_CAT_ID":56957,"ELEMENT_SET_NO":999,"REV_AT_EPOCH":15065,"BSTAR":0.0002590454,"MEAN_MOTION_DOT":6.943e-5,"MEAN_MOTION_DDOT":0},{"OBJECT_NAME":"STARLINK-31215","OBJECT_ID":"2024-019V","EPOCH":"2026-03-09T11:40:09.524640","MEAN_MOTION":15.27588758,"ECCENTRICITY":6.504e-5,"INCLINATION":42.9994,"RA_OF_ASC_NODE":249.8653,"ARG_OF_PERICENTER":246.3308,"MEAN_ANOMALY":113.7475,"EPHEMERIS_TYPE":0,"CLASSIFICATION_TYPE":"U","NORAD_CAT_ID":58872,"ELEMENT_SET_NO":999,"REV_AT_EPOCH":11903,"BSTAR":0.00015458097,"MEAN_MOTION_DOT":3.995e-5,"MEAN_MOTION_DDOT":0}]
